CCSDS_OMM_VERS = 2.0
CREATION_DATE  = 
ORIGINATOR     = 

OBJECT_NAME    = STARLINK-36369
OBJECT_ID      = 2026-026C
CENTER_NAME    = EARTH
REF_FRAME      = TEME
TIME_SYSTEM    = UTC
MEAN_ELEMENT_THEORY = SGP/SGP4

EPOCH          = 2026-02-28T10:37:50.303712
MEAN_MOTION    = 15.80830281
ECCENTRICITY   = .0000841
INCLINATION    = 97.2858
RA_OF_ASC_NODE = 113.6381
ARG_OF_PERICENTER = 108.8531
MEAN_ANOMALY   = 251.2829

EPHEMERIS_TYPE = 0
CLASSIFICATION_TYPE = U
NORAD_CAT_ID   = 67723
ELEMENT_SET_NO = 999
REV_AT_EPOCH   = 267
BSTAR          = .25331E-3
MEAN_MOTION_DOT = .4868E-3
MEAN_MOTION_DDOT = 0

CCSDS_OMM_VERS = 2.0
CREATION_DATE  = 
ORIGINATOR     = 

OBJECT_NAME    = STARLINK-36752
OBJECT_ID      = 2026-026D
CENTER_NAME    = EARTH
REF_FRAME      = TEME
TIME_SYSTEM    = UTC
MEAN_ELEMENT_THEORY = SGP/SGP4

EPOCH          = 2026-02-28T10:35:54.484512
MEAN_MOTION    = 15.80838592
ECCENTRICITY   = .0001417
INCLINATION    = 97.2859
RA_OF_ASC_NODE = 113.6404
ARG_OF_PERICENTER = 76.4252
MEAN_ANOMALY   = 283.7174

EPHEMERIS_TYPE = 0
CLASSIFICATION_TYPE = U
NORAD_CAT_ID   = 67724
ELEMENT_SET_NO = 999
REV_AT_EPOCH   = 267
BSTAR          = .50434E-3
MEAN_MOTION_DOT = .97651E-3
MEAN_MOTION_DDOT = 0

CCSDS_OMM_VERS = 2.0
CREATION_DATE  = 
ORIGINATOR     = 

OBJECT_NAME    = STARLINK-36754
OBJECT_ID      = 2026-026E
CENTER_NAME    = EARTH
REF_FRAME      = TEME
TIME_SYSTEM    = UTC
MEAN_ELEMENT_THEORY = SGP/SGP4

EPOCH          = 2026-02-28T10:34:22.705248
MEAN_MOTION    = 15.80862042
ECCENTRICITY   = .0001102
INCLINATION    = 97.2859
RA_OF_ASC_NODE = 113.6408
ARG_OF_PERICENTER = 94.3362
MEAN_ANOMALY   = 265.8032

EPHEMERIS_TYPE = 0
CLASSIFICATION_TYPE = U
NORAD_CAT_ID   = 67725
ELEMENT_SET_NO = 999
REV_AT_EPOCH   = 267
BSTAR          = .60988E-3
MEAN_MOTION_DOT = .118527E-2
MEAN_MOTION_DDOT = 0

CCSDS_OMM_VERS = 2.0
CREATION_DATE  = 
ORIGINATOR     = 

OBJECT_NAME    = STARLINK-36755
OBJECT_ID      = 2026-026F
CENTER_NAME    = EARTH
REF_FRAME      = TEME
TIME_SYSTEM    = UTC
MEAN_ELEMENT_THEORY = SGP/SGP4

EPOCH          = 2026-02-28T10:32:26.095488
MEAN_MOTION    = 15.80888060
ECCENTRICITY   = .0001219
INCLINATION    = 97.2857
RA_OF_ASC_NODE = 113.6417
ARG_OF_PERICENTER = 121.6652
MEAN_ANOMALY   = 238.4735

EPHEMERIS_TYPE = 0
CLASSIFICATION_TYPE = U
NORAD_CAT_ID   = 67726
ELEMENT_SET_NO = 999
REV_AT_EPOCH   = 267
BSTAR          = .77428E-3
MEAN_MOTION_DOT = .151265E-2
MEAN_MOTION_DDOT = 0

CCSDS_OMM_VERS = 2.0
CREATION_DATE  = 
ORIGINATOR     = 

OBJECT_NAME    = STARLINK-36741
OBJECT_ID      = 2026-026G
CENTER_NAME    = EARTH
REF_FRAME      = TEME
TIME_SYSTEM    = UTC
MEAN_ELEMENT_THEORY = SGP/SGP4

EPOCH          = 2026-02-28T10:31:11.337024
MEAN_MOTION    = 15.80836982
ECCENTRICITY   = .0000878
INCLINATION    = 97.2858
RA_OF_ASC_NODE = 113.6428
ARG_OF_PERICENTER = 102.7709
MEAN_ANOMALY   = 257.3657

EPHEMERIS_TYPE = 0
CLASSIFICATION_TYPE = U
NORAD_CAT_ID   = 67727
ELEMENT_SET_NO = 999
REV_AT_EPOCH   = 267
BSTAR          = .36354E-3
MEAN_MOTION_DOT = .70121E-3
MEAN_MOTION_DDOT = 0

CCSDS_OMM_VERS = 2.0
CREATION_DATE  = 
ORIGINATOR     = 

OBJECT_NAME    = STARLINK-36757
OBJECT_ID      = 2026-026H
CENTER_NAME    = EARTH
REF_FRAME      = TEME
TIME_SYSTEM    = UTC
MEAN_ELEMENT_THEORY = SGP/SGP4

EPOCH          = 2026-02-28T10:29:26.631456
MEAN_MOTION    = 15.80827306
ECCENTRICITY   = .0001507
INCLINATION    = 97.2859
RA_OF_ASC_NODE = 113.6434
ARG_OF_PERICENTER = 71.5508
MEAN_ANOMALY   = 288.5924

EPHEMERIS_TYPE = 0
CLASSIFICATION_TYPE = U
NORAD_CAT_ID   = 67728
ELEMENT_SET_NO = 999
REV_AT_EPOCH   = 267
BSTAR          = .32014E-3
MEAN_MOTION_DOT = .61647E-3
MEAN_MOTION_DDOT = 0

CCSDS_OMM_VERS = 2.0
CREATION_DATE  = 
ORIGINATOR     = 

OBJECT_NAME    = STARLINK-36751
OBJECT_ID      = 2026-026J
CENTER_NAME    = EARTH
REF_FRAME      = TEME
TIME_SYSTEM    = UTC
MEAN_ELEMENT_THEORY = SGP/SGP4

EPOCH          = 2026-02-28T10:25:52.375008
MEAN_MOTION    = 15.80883309
ECCENTRICITY   = .000134
INCLINATION    = 97.2857
RA_OF_ASC_NODE = 113.6465
ARG_OF_PERICENTER = 107.7674
MEAN_ANOMALY   = 252.3740

EPHEMERIS_TYPE = 0
CLASSIFICATION_TYPE = U
NORAD_CAT_ID   = 67729
ELEMENT_SET_NO = 999
REV_AT_EPOCH   = 267
BSTAR          = .10324E-2
MEAN_MOTION_DOT = .202891E-2
MEAN_MOTION_DDOT = 0

CCSDS_OMM_VERS = 2.0
CREATION_DATE  = 
ORIGINATOR     = 

OBJECT_NAME    = STARLINK-36747
OBJECT_ID      = 2026-026K
CENTER_NAME    = EARTH
REF_FRAME      = TEME
TIME_SYSTEM    = UTC
MEAN_ELEMENT_THEORY = SGP/SGP4

EPOCH          = 2026-02-28T10:28:02.201376
MEAN_MOTION    = 15.80850305
ECCENTRICITY   = .000078
INCLINATION    = 97.2859
RA_OF_ASC_NODE = 113.6452
ARG_OF_PERICENTER = 114.5528
MEAN_ANOMALY   = 245.5822

EPHEMERIS_TYPE = 0
CLASSIFICATION_TYPE = U
NORAD_CAT_ID   = 67730
ELEMENT_SET_NO = 999
REV_AT_EPOCH   = 267
BSTAR          = .47319E-3
MEAN_MOTION_DOT = .91594E-3
MEAN_MOTION_DDOT = 0

CCSDS_OMM_VERS = 2.0
CREATION_DATE  = 
ORIGINATOR     = 

OBJECT_NAME    = STARLINK-36315
OBJECT_ID      = 2026-026L
CENTER_NAME    = EARTH
REF_FRAME      = TEME
TIME_SYSTEM    = UTC
MEAN_ELEMENT_THEORY = SGP/SGP4

EPOCH          = 2026-02-28T10:24:29.233152
MEAN_MOTION    = 15.80841850
ECCENTRICITY   = .0001094
INCLINATION    = 97.2853
RA_OF_ASC_NODE = 113.6487
ARG_OF_PERICENTER = 101.9296
MEAN_ANOMALY   = 258.2094

EPHEMERIS_TYPE = 0
CLASSIFICATION_TYPE = U
NORAD_CAT_ID   = 67731
ELEMENT_SET_NO = 999
REV_AT_EPOCH   = 267
BSTAR          = .52068E-3
MEAN_MOTION_DOT = .100871E-2
MEAN_MOTION_DDOT = 0

CCSDS_OMM_VERS = 2.0
CREATION_DATE  = 
ORIGINATOR     = 

OBJECT_NAME    = STARLINK-36260
OBJECT_ID      = 2026-026M
CENTER_NAME    = EARTH
REF_FRAME      = TEME
TIME_SYSTEM    = UTC
MEAN_ELEMENT_THEORY = SGP/SGP4

EPOCH          = 2026-02-28T10:22:46.652160
MEAN_MOTION    = 15.80853417
ECCENTRICITY   = .0001346
INCLINATION    = 97.2856
RA_OF_ASC_NODE = 113.6502
ARG_OF_PERICENTER = 118.1327
MEAN_ANOMALY   = 242.0077

EPHEMERIS_TYPE = 0
CLASSIFICATION_TYPE = U
NORAD_CAT_ID   = 67732
ELEMENT_SET_NO = 999
REV_AT_EPOCH   = 267
BSTAR          = .53794E-3
MEAN_MOTION_DOT = .104316E-2
MEAN_MOTION_DDOT = 0

CCSDS_OMM_VERS = 2.0
CREATION_DATE  = 
ORIGINATOR     = 

OBJECT_NAME    = STARLINK-36746
OBJECT_ID      = 2026-026N
CENTER_NAME    = EARTH
REF_FRAME      = TEME
TIME_SYSTEM    = UTC
MEAN_ELEMENT_THEORY = SGP/SGP4

EPOCH          = 2026-02-28T12:00:00.998784
MEAN_MOTION    = 15.67300188
ECCENTRICITY   = .0001399
INCLINATION    = 97.2829
RA_OF_ASC_NODE = 113.6897
ARG_OF_PERICENTER = 82.1677
MEAN_ANOMALY   = 228.8249

EPHEMERIS_TYPE = 0
CLASSIFICATION_TYPE = U
NORAD_CAT_ID   = 67733
ELEMENT_SET_NO = 999
REV_AT_EPOCH   = 383
BSTAR          = -.19927E-1
MEAN_MOTION_DOT = -.1897833E-1
MEAN_MOTION_DDOT = 0

CCSDS_OMM_VERS = 2.0
CREATION_DATE  = 
ORIGINATOR     = 

OBJECT_NAME    = STARLINK-36749
OBJECT_ID      = 2026-026P
CENTER_NAME    = EARTH
REF_FRAME      = TEME
TIME_SYSTEM    = UTC
MEAN_ELEMENT_THEORY = SGP/SGP4

EPOCH          = 2026-02-28T10:19:49.075968
MEAN_MOTION    = 15.80848838
ECCENTRICITY   = .0001306
INCLINATION    = 97.2858
RA_OF_ASC_NODE = 113.6509
ARG_OF_PERICENTER = 100.3219
MEAN_ANOMALY   = 259.8197

EPHEMERIS_TYPE = 0
CLASSIFICATION_TYPE = U
NORAD_CAT_ID   = 67734
ELEMENT_SET_NO = 999
REV_AT_EPOCH   = 267
BSTAR          = .60439E-3
MEAN_MOTION_DOT = .117372E-2
MEAN_MOTION_DDOT = 0

