STARLINK-36369          
1 67723U 26026C   26059.44294333  .00048680  00000+0  25331-3 0  9997
2 67723  97.2858 113.6381 0000841 108.8531 251.2829 15.80830281  2678
STARLINK-36752          
1 67724U 26026D   26059.44160283  .00097651  00000+0  50434-3 0  9998
2 67724  97.2859 113.6404 0001417  76.4252 283.7174 15.80838592  2672
STARLINK-36754          
1 67725U 26026E   26059.44054057  .00118527  00000+0  60988-3 0  9991
2 67725  97.2859 113.6408 0001102  94.3362 265.8032 15.80862042  2670
STARLINK-36755          
1 67726U 26026F   26059.43919092  .00151265  00000+0  77428-3 0  9993
2 67726  97.2857 113.6417 0001219 121.6652 238.4735 15.80888060  2678
STARLINK-36741          
1 67727U 26026G   26059.43832566  .00070121  00000+0  36354-3 0  9998
2 67727  97.2858 113.6428 0000878 102.7709 257.3657 15.80836982  2674
STARLINK-36757          
1 67728U 26026H   26059.43711379  .00061647  00000+0  32014-3 0  9999
2 67728  97.2859 113.6434 0001507  71.5508 288.5924 15.80827306  2676
STARLINK-36751          
1 67729U 26026J   26059.43463397  .00202891  00000+0  10324-2 0  9991
2 67729  97.2857 113.6465 0001340 107.7674 252.3740 15.80883309  2670
STARLINK-36747          
1 67730U 26026K   26059.43613659  .00091594  00000+0  47319-3 0  9992
2 67730  97.2859 113.6452 0000780 114.5528 245.5822 15.80850305  2676
STARLINK-36315          
1 67731U 26026L   26059.43367168  .00100871  00000+0  52068-3 0  9990
2 67731  97.2853 113.6487 0001094 101.9296 258.2094 15.80841850  2677
STARLINK-36260          
1 67732U 26026M   26059.43248440  .00104316  00000+0  53794-3 0  9997
2 67732  97.2856 113.6502 0001346 118.1327 242.0077 15.80853417  2678
STARLINK-36746          
1 67733U 26026N   26059.50001156 -.01897833  00000+0 -19927-1 0  9991
2 67733  97.2829 113.6897 0001399  82.1677 228.8249 15.67300188  3831
STARLINK-36749          
1 67734U 26026P   26059.43042912  .00117372  00000+0  60439-3 0  9995
2 67734  97.2858 113.6509 0001306 100.3219 259.8197 15.80848838  2678
